{
    "links": {
        "self": "http://www.neowsapp.com/rest/v1/neo/3648712?api_key=iIulBulltgU6a56xZRHN4H3l9WmuAYTsLGpBGhQ2"
    },
    "id": "3648712",
    "neo_reference_id": "3648712",
    "name": "(2013 SO24)",
    "designation": "2013 SO24",
    "nasa_jpl_url": "http://ssd.jpl.nasa.gov/sbdb.cgi?sstr=3648712",
    "absolute_magnitude_h": 23.4,
    "estimated_diameter": {
        "kilometers": {
            "estimated_diameter_min": 0.0555334912,
            "estimated_diameter_max": 0.1241766613
        },
        "meters": {
            "estimated_diameter_min": 55.5334911581,
            "estimated_diameter_max": 124.1766612574
        },
        "miles": {
            "estimated_diameter_min": 0.0345069009,
            "estimated_diameter_max": 0.0771597762
        },
        "feet": {
            "estimated_diameter_min": 182.1964991311,
            "estimated_diameter_max": 407.4037573197
        }
    },
    "is_potentially_hazardous_asteroid": false,
    "close_approach_data": [
        {
            "close_approach_date": "2006-09-25",
            "close_approach_date_full": "2006-Sep-25 17:38",
            "epoch_date_close_approach": 1159205880000,
            "relative_velocity": {
                "kilometers_per_second": "13.2249211432",
                "kilometers_per_hour": "47609.7161154217",
                "miles_per_hour": "29582.826105163"
            },
            "miss_distance": {
                "astronomical": "0.1185792191",
                "lunar": "46.1273162299",
                "kilometers": "17739198.603623317",
                "miles": "11022626.8862910946"
            },
            "orbiting_body": "Earth"
        },
        {
            "close_approach_date": "2013-04-24",
            "close_approach_date_full": "2013-Apr-24 12:26",
            "epoch_date_close_approach": 1366806360000,
            "relative_velocity": {
                "kilometers_per_second": "14.0279681665",
                "kilometers_per_hour": "50500.6853992693",
                "miles_per_hour": "31379.1619915627"
            },
            "miss_distance": {
                "astronomical": "0.3810211031",
                "lunar": "148.2172091059",
                "kilometers": "56999945.448810397",
                "miles": "35418123.7416695986"
            },
            "orbiting_body": "Earth"
        },
        {
            "close_approach_date": "2013-09-25",
            "close_approach_date_full": "2013-Sep-25 19:20",
            "epoch_date_close_approach": 1380136800000,
            "relative_velocity": {
                "kilometers_per_second": "13.3102600891",
                "kilometers_per_hour": "47916.9363207467",
                "miles_per_hour": "29773.7207932995"
            },
            "miss_distance": {
                "astronomical": "0.1042987341",
                "lunar": "40.5722075649",
                "kilometers": "15602868.465056367",
                "miles": "9695172.8930451846"
            },
            "orbiting_body": "Earth"
        },
        {
            "close_approach_date": "2020-09-25",
            "close_approach_date_full": "2020-Sep-25 16:49",
            "epoch_date_close_approach": 1601052540000,
            "relative_velocity": {
                "kilometers_per_second": "13.3654865175",
                "kilometers_per_hour": "48115.751462987",
                "miles_per_hour": "29897.2567909877"
            },
            "miss_distance": {
                "astronomical": "0.0983289615",
                "lunar": "38.2499660235",
                "kilometers": "14709803.199712005",
                "miles": "9140247.869375469"
            },
            "orbiting_body": "Earth"
        },
        {
            "close_approach_date": "2164-09-29",
            "close_approach_date_full": "2164-Sep-29 01:57",
            "epoch_date_close_approach": 6145552620000,
            "relative_velocity": {
                "kilometers_per_second": "14.2114253208",
                "kilometers_per_hour": "51161.1311548224",
                "miles_per_hour": "31789.5373000617"
            },
            "miss_distance": {
                "astronomical": "0.0975127738",
                "lunar": "37.9324690082",
                "kilometers": "14587703.258271806",
                "miles": "9064378.4838746828"
            },
            "orbiting_body": "Earth"
        }
    ],
    "orbital_data": {
        "orbit_id": "7",
        "orbit_determination_date": "2017-04-06 08:44:30",
        "first_observation_date": "2013-09-28",
        "last_observation_date": "2013-10-05",
        "data_arc_in_days": 7,
        "observations_used": 33,
        "orbit_uncertainty": "8",
        "minimum_orbit_intersection": ".0822183",
        "jupiter_tisserand_invariant": "5.030",
        "epoch_osculation": "2456566.5",
        "eccentricity": ".1763561092522049",
        "semi_major_axis": "1.251731435637147",
        "inclination": "25.29194753318025",
        "ascending_node_longitude": "186.6152321552829",
        "orbital_period": "511.5229994674993",
        "perihelion_distance": "1.030980949819503",
        "perihelion_argument": "130.6309348961404",
        "aphelion_distance": "1.472481921454791",
        "perihelion_time": "2456511.781752334106",
        "mean_anomaly": "38.50964507994411",
        "mean_motion": ".7037806713965231",
        "equinox": "J2000",
        "orbit_class": {
            "orbit_class_type": "AMO",
            "orbit_class_description": "Near-Earth asteroid orbits similar to that of 1221 Amor",
            "orbit_class_range": "1.017 AU < q (perihelion) < 1.3 AU"
        }
    },
    "is_sentry_object": false
}